YAOGAN-35 02A           
1 52907U 22068A   25191.51819976  .00003815  00000+0  18478-3 0  9992
2 52907  34.9924 121.3144 0013688 242.1703 117.7623 15.17946512169832
YAOGAN-35 02B           
1 52908U 22068B   25191.24331745  .00009573  00000+0  32323-3 0  9998
2 52908  35.0003 111.4982 0002008 173.5162 186.5581 15.29902603169881
GAOFEN-12 03            
1 52912U 22069A   25191.62307677  .00000782  00000+0  10826-3 0  9990
2 52912  97.8677  82.2961 0001700  96.8308 263.3098 14.80723437164095
SES-22                  
1 52933U 22071A   25189.96371933  .00000120  00000+0  00000+0 0  9991
2 52933   0.0170 357.6887 0001199 108.4316  28.9900  1.00274447  4088
DS-EO                   
1 52935U 22072A   25191.45980706  .00003262  00000+0  14803-3 0  9995
2 52935   9.9935 213.1669 0003624   2.1165 357.9065 15.09956366166704
WFOV (USA 332)          
1 52940U 22073A   25191.65285433 -.00000353  00000+0  00000+0 0  9998
2 52940   2.8298  83.0270 0001344 339.6350 220.4774  1.00270803 10943
COSMOS 2557 [GLONASS-K] 
1 52984U 22075A   25191.48717361 -.00000059  00000+0  00000+0 0  9992
2 52984  64.4946 326.5050 0010924 274.4607  85.4127  2.13102212 23422
STARLINK-4260           
1 52986U 22076A   25191.47152595  .00000217  00000+0  31747-4 0  9998
2 52986  53.2175 101.4807 0001348  86.1133 274.0013 15.08839853166273
STARLINK-4259           
1 52987U 22076B   25191.51108216  .00000153  00000+0  27701-4 0  9999
2 52987  53.2175 111.3031 0001422  88.3714 271.7442 15.08842488166149
STARLINK-4291           
1 52988U 22076C   25191.13664464  .00000629  00000+0  57608-4 0  9997
2 52988  53.2177 102.9831 0001410  88.8180 271.2974 15.08840309166229
STARLINK-4293           
1 52989U 22076D   25191.50740403  .00000339  00000+0  39371-4 0  9992
2 52989  53.2165 111.3202 0001376  75.8188 284.2957 15.08840750166144
STARLINK-4286           
1 52990U 22076E   25191.50372566  .00000082  00000+0  23222-4 0  9998
2 52990  53.2177 111.3361 0001061  90.9006 269.2108 15.08838656166146
STARLINK-4285           
1 52991U 22076F   25191.50005305 -.00002809  00000+0 -15853-3 0  9994
2 52991  53.2174 111.3526 0000962  89.6002 270.5100 15.08829924166142
STARLINK-4269           
1 52992U 22076G   25191.49732561 -.00000034  00000+0  15950-4 0  9990
2 52992  53.2172 111.3752 0001456  88.3105 271.8054 15.08835962166142
STARLINK-4264           
1 52993U 22076H   25191.46416702  .00000023  00000+0  19509-4 0  9995
2 52993  53.2178 101.5124 0001467  90.2553 269.8607 15.08837347166278
STARLINK-4256           
1 52994U 22076J   25191.46048500  .00000308  00000+0  37410-4 0  9990
2 52994  53.2177 101.5279 0001319  88.0908 272.0235 15.08839387166273
STARLINK-4296           
1 52995U 22076K   25191.45312709  .00000271  00000+0  35132-4 0  9993
2 52995  53.2181 101.5615 0001342  90.7412 269.3734 15.08832483166272
STARLINK-4295           
1 52996U 22076L   25191.48355572 -.00000105  00000+0  11493-4 0  9993
2 52996  53.2174 101.7065 0001424  94.5395 265.5760 15.08836865166274
STARLINK-4254           
1 52998U 22076N   25191.44202915  .00005142  00000+0  34056-3 0  9997
2 52998  53.2175 101.5236 0001344  94.2149 265.8997 15.08879056166274
STARLINK-4217           
1 52999U 22076P   25191.03728210 -.00000811  00000+0 -32864-4 0  9990
2 52999  53.2175 103.4270 0001556  87.5511 272.5660 15.08841422166219
STARLINK-4194           
1 53000U 22076Q   25191.44945256 -.00000873  00000+0 -36740-4 0  9995
2 53000  53.2170 101.5773 0001723  92.2847 267.8342 15.08829691166270
STARLINK-4190           
1 53001U 22076R   25191.16608585 -.00000929  00000+0 -40263-4 0  9993
2 53001  53.2171 102.8517 0001445  87.6290 272.4868 15.08834589166236
STARLINK-4121           
1 53002U 22076S   25191.44577822 -.00000567  00000+0 -17499-4 0  9997
2 53002  53.2173 101.5943 0002189  90.3159 269.8084 15.08820152166274
STARLINK-4255           
1 53003U 22076T   25191.15872159  .00000397  00000+0  43036-4 0  9992
2 53003  53.2172 102.8842 0001436  87.4196 272.6960 15.08842078166230
STARLINK-4253           
1 53004U 22076U   25191.17344897 -.00001423  00000+0 -71382-4 0  9996
2 53004  53.2174 102.8165 0001387  89.9598 270.1553 15.08831194166237
STARLINK-4288           
1 53005U 22076V   25191.48625185 -.00001752  00000+0 -92048-4 0  9990
2 53005  53.2172 101.4147 0000754 104.2281 255.8795 15.08826243166280
STARLINK-4290           
1 53006U 22076W   25191.02992334  .00000226  00000+0  32314-4 0  9997
2 53006  53.2179 103.4621 0001379  91.3315 268.7836 15.08834502166214
STARLINK-4215           
1 53007U 22076X   25191.47888314  .00000240  00000+0  33159-4 0  9993
2 53007  53.2173 101.4476 0001367  91.0744 269.0405 15.08843121166285
STARLINK-4275           
1 53008U 22076Y   25191.48256443  .00001823  00000+0  13262-3 0  9997
2 53008  53.2164 101.4228 0001699  72.7534 287.3644 15.08831350166281
STARLINK-4277           
1 53009U 22076Z   25191.00140214  .00000491  00000+0  48954-4 0  9991
2 53009  53.2176  93.5910 0001453  88.5853 271.5306 15.08839844166344
STARLINK-4263           
1 53010U 22076AA  25191.45677880 -.00000118  00000+0  10715-4 0  9997
2 53010  53.2181 101.2747 0001692  92.4534 267.6652 15.08832744166287
STARLINK-4265           
1 53011U 22076AB  25190.99772073  .00000077  00000+0  22903-4 0  9991
2 53011  53.2169  93.6054 0001294  89.2279 270.8861 15.08838529166349
STARLINK-4271           
1 53012U 22076AC  25191.47520530  .00000028  00000+0  19874-4 0  9994
2 53012  53.2181 101.4634 0001476  87.5031 272.6130 15.08839368166289
STARLINK-4177           
1 53013U 22076AD  25191.45404710  .00000103  00000+0  24586-4 0  9994
2 53013  53.2176  91.5598 0001469  87.8057 272.3104 15.08837636166414
STARLINK-4183           
1 53014U 22076AE  25191.13756448 -.00000083  00000+0  12898-4 0  9999
2 53014  53.2184  92.9801 0001561  95.2711 264.8460 15.08838842166364
STARLINK-4262           
1 53015U 22076AF  25191.44667217  .00001980  00000+0  14240-3 0  9997
2 53015  53.2183  91.5923 0001376  84.2739 275.8410 15.08852408166413
STARLINK-4283           
1 53016U 22076AG  25191.45772567  .00000365  00000+0  41017-4 0  9993
2 53016  53.2180  91.5426 0001436 100.1447 259.9707 15.08835423166410
STARLINK-4281           
1 53017U 22076AH  25191.44300511  .00000500  00000+0  49533-4 0  9991
2 53017  53.2185  91.6071 0001355  85.6495 274.4652 15.08839306166429
STARLINK-4279           
1 53018U 22076AJ  25191.41359856 -.00001592  00000+0 -81987-4 0  9998
2 53018  53.2171  91.9997 0001387  91.4100 268.7051 15.08827251166401
STARLINK-4282           
1 53019U 22076AK  25191.43564890  .00000159  00000+0  28085-4 0  9993
2 53019  53.2185  91.6410 0001462  92.3722 267.7438 15.08835902166419
STARLINK-4287           
1 53020U 22076AL  25191.45036676  .00000398  00000+0  43074-4 0  9993
2 53020  53.2172  91.5758 0001393  88.0140 272.1012 15.08839621166410
STARLINK-4216           
1 53022U 22076AN  25191.43932828  .00000185  00000+0  29722-4 0  9995
2 53022  53.2184  91.6239 0001616  87.1474 272.9703 15.08837099166410
STARLINK-4284           
1 53023U 22076AP  25191.42092578  .00000131  00000+0  26311-4 0  9996
2 53023  53.2169  91.6959 0001299  90.1727 269.9414 15.08835157166413
STARLINK-4289           
1 53024U 22076AQ  25191.42460677 -.00000004  00000+0  17854-4 0  9998
2 53024  53.2178  91.6895 0001450  90.9462 269.1696 15.08836890166415
STARLINK-4218           
1 53025U 22076AR  25191.41725509 -.00001312  00000+0 -64381-4 0  9997
2 53025  53.2172  91.7228 0001742  88.7237 271.3955 15.08826167166419
STARLINK-4119           
1 53026U 22076AS  25191.42187083  .00000204  00000+0  30904-4 0  9999
2 53026  53.2171  91.5943 0001386  86.0437 274.0714 15.08836916166414
STARLINK-4158           
1 53027U 22076AT  25191.14124391  .00000015  00000+0  19054-4 0  9995
2 53027  53.2182  92.9635 0001505  93.8771 266.2394 15.08839664166375
STARLINK-4143           
1 53029U 22076AV  25191.39240872 -.00000346  00000+0 -36493-5 0  9993
2 53029  53.2179  81.8361 0001365  89.4284 270.6865 15.08834023166545
STARLINK-4160           
1 53030U 22076AW  25191.43199259 -.00001028  00000+0 -46549-4 0  9992
2 53030  53.2170  91.8500 0001196  99.5622 260.5505 15.08823868166414
STARLINK-4137           
1 53031U 22076AX  25191.11640319 -.00000337  00000+0 -30845-5 0  9991
2 53031  53.2178  83.0751 0001442  94.1727 265.9430 15.08837948166505
STARLINK-4115           
1 53032U 22076AY  25191.14492689 -.00000508  00000+0 -13812-4 0  9994
2 53032  53.2174  92.9460 0001396  89.0012 271.1140 15.08836973166375
STARLINK-4167           
1 53033U 22076AZ  25191.38504804 -.00001012  00000+0 -45532-4 0  9999
2 53033  53.2172  81.8685 0001524  85.2513 274.8653 15.08835029166546
STARLINK-4151           
1 53034U 22076BA  25191.12840840 -.00001135  00000+0 -53255-4 0  9992
2 53034  53.2173  83.0703 0001371  90.1617 269.9532 15.08833216166506
STARLINK-4157           
1 53035U 22076BB  25191.11270047  .00002470  00000+0  17312-3 0  9992
2 53035  53.2178  83.0905 0001481  94.5230 265.5931 15.08858232166507
STARLINK-4155           
1 53036U 22076BC  25191.10904593 -.00000153  00000+0  84659-5 0  9999
2 53036  53.2182  83.1080 0001564  92.4071 267.7100 15.08837051166508
STARLINK-4153           
1 53037U 22076BD  25190.97288381  .00000186  00000+0  29790-4 0  9993
2 53037  53.2181  83.7194 0001416  89.3741 270.7414 15.08839508166483
STARLINK-4156           
1 53038U 22076BE  25191.43288465  .00000260  00000+0  34459-4 0  9990
2 53038  53.2177  81.6551 0002024  83.0009 277.1213 15.08840974166552
STARLINK-4362           
1 53043U 22077A   25191.49474817 -.00000227  00000+0 -13048-4 0  9997
2 53043  97.6547  12.7702 0001014  13.5373 346.5878 15.01258498164580
STARLINK-4349           
1 53044U 22077B   25191.49105838  .00000491  00000+0  42791-4 0  9990
2 53044  97.6555  12.7621 0001430  72.8462 287.2918 15.01265424164582
